EUTELSAT 21B            
1 38992U 12062B   25297.76597705  .00000142  00000+0  00000+0 0  9998
2 38992   0.0716 358.9655 0002912 223.4783 108.3722  1.00268666 47460
EUTELSAT 70B            
1 39020U 12069A   25297.86277237 -.00000031  00000+0  00000+0 0  9992
2 39020   0.0673   8.8075 0004338 205.2632 200.5491  1.00271711 47145
EUTELSAT 117 WEST A     
1 39122U 13012A   25297.66694564 -.00000001  00000+0  00000+0 0  9995
2 39122   0.0084  34.5337 0002618 177.6424 304.4582  1.00272681 46074
EUTELSAT 7B             
1 39163U 13022A   25297.83435737  .00000060  00000+0  00000+0 0  9999
2 39163   0.0735  14.9584 0001898 297.6102  28.3003  1.00271133 45590
EXPRESS-AT1             
1 39612U 14010A   25297.77273706  .00000091  00000+0  00000+0 0  9999
2 39612   0.0077 263.9012 0000467 212.3664 251.3556  1.00271659 42454
EXPRESS-AT2             
1 39613U 14010B   25297.78937715 -.00000268  00000+0  00000+0 0  9995
2 39613   0.0154 248.5620 0000373 252.1167 316.8159  1.00272360 42143
EUTELSAT 3B             
1 39773U 14030A   25297.76225036  .00000033  00000+0  00000+0 0  9997
2 39773   0.0684  11.2425 0004360 191.6641 108.0320  1.00272489 41704
EUTELSAT 115 WEST B     
1 40425U 15010B   25297.38207742 -.00000013  00000+0  00000+0 0  9993
2 40425   0.0123  96.5478 0000297 204.2119 114.9554  1.00270766 39021
